{
    "CCSDS_OMM_VERS": "3.0",
    "COMMENT": "GENERATED VIA SPACE-TRACK.ORG API",
    "CREATION_DATE": "2025-05-22T22:46:20",
    "ORIGINATOR": "18 SPCS",
    "OBJECT_NAME": "COSMOS 2514 (GLONASS)",
    "OBJECT_ID": "2016-008A",
    "CENTER_NAME": "EARTH",
    "REF_FRAME": "TEME",
    "TIME_SYSTEM": "UTC",
    "MEAN_ELEMENT_THEORY": "SGP4",
    "EPOCH": "2025-05-22T09:23:26.250720",
    "MEAN_MOTION": "2.13102558",
    "ECCENTRICITY": "0.00095700",
    "INCLINATION": "65.2465",
    "RA_OF_ASC_NODE": "326.3911",
    "ARG_OF_PERICENTER": "199.2891",
    "MEAN_ANOMALY": "160.6946",
    "EPHEMERIS_TYPE": "0",
    "CLASSIFICATION_TYPE": "U",
    "NORAD_CAT_ID": "41330",
    "ELEMENT_SET_NO": "999",
    "REV_AT_EPOCH": "7229",
    "BSTAR": "0.00000000000000",
    "MEAN_MOTION_DOT": "-0.00000023",
    "MEAN_MOTION_DDOT": "0.0000000000000",
    "SEMIMAJOR_AXIS": "25507.980",
    "PERIOD": "675.731",
    "APOAPSIS": "19154.256",
    "PERIAPSIS": "19105.434",
    "OBJECT_TYPE": "PAYLOAD",
    "RCS_SIZE": "LARGE",
    "COUNTRY_CODE": "CIS",
    "LAUNCH_DATE": "2016-02-07",
    "SITE": "PKMTR",
    "DECAY_DATE": null,
    "FILE": "4736390",
    "GP_ID": "288163127",
    "TLE_LINE0": "0 COSMOS 2514 (GLONASS)",
    "TLE_LINE1": "1 41330U 16008A   25142.39127605 -.00000023  00000-0  00000+0 0  9998",
    "TLE_LINE2": "2 41330  65.2465 326.3911 0009570 199.2891 160.6946  2.13102558 72295"
}